ORBCOMM FM24 [-]        
1 25478U 98053D   23292.17822585  .00002641  00000+0  97208-3 0  9998
2 25478  45.0082 259.0490 0001639 332.8549  27.2213 14.34787735310177
ORBCOMM FM25 [-]        
1 25479U 98053E   23292.35101598  .00002481  00000+0  91634-3 0  9992
2 25479  45.0071 256.4676 0002204  59.8811 300.2254 14.34769986310492
ORBCOMM FM26 [-]        
1 25480U 98053F   23292.28769389  .00002243  00000+0  84021-3 0  9992
2 25480  45.0067 250.1258 0003763 105.4318 254.6944 14.34337955310436
ORBCOMM FM27 [+]        
1 25481U 98053G   23292.26620776  .00002419  00000+0  89512-3 0  9992
2 25481  45.0057 257.1234 0002347 292.8071  67.2528 14.34745322310416
ORBCOMM FM28 [-]        
1 25482U 98053H   23292.11037594  .00002109  00000+0  77919-3 0  9991
2 25482  45.0051 197.0550 0002637 126.3821 233.7270 14.35237455311059
ORBCOMM FM30 [-]        
1 25980U 99065A   23292.40833865  .00002243  00000+0  83810-3 0  9991
2 25980  45.0314  74.8825 0006966 209.8670 150.1781 14.34466356247240
ORBCOMM FM31 [-]        
1 25981U 99065B   23292.51519971  .00002126  00000+0  79683-3 0  9996
2 25981  45.0232  68.2381 0004090 227.3966 132.6536 14.34494099246813
ORBCOMM FM32 [+]        
1 25982U 99065C   23292.69718695  .00001995  00000+0  76621-3 0  9992
2 25982  45.0161  79.6856 0006025 232.8763 127.1533 14.33439095247624
